GSAT0216 (GALILEO 20)   
1 43056U 17079B   26191.18336701  .00000090  00000+0  00000+0 0  9997
2 43056  55.0690 220.8736 0004821 276.9654  83.0589  1.70474478 53392
GSAT0217 (GALILEO 21)   
1 43057U 17079C   26188.47125062  .00000081  00000+0  00000+0 0  9992
2 43057  55.0679 220.9459 0003909 293.3909  66.6394  1.70474257 53335
GSAT0218 (GALILEO 22)   
1 43058U 17079D   26192.21083116  .00000089  00000+0  00000+0 0  9991
2 43058  55.0671 220.8406 0005338 274.4477  85.5718  1.70474393 53428
BEIDOU-3 M7             
1 43107U 18003A   26191.43983110 -.00000068  00000+0  00000+0 0  9998
2 43107  54.3060 301.5047 0004517  98.3583 261.7116  1.86228296 57783
BEIDOU-3 M8             
1 43108U 18003B   26192.45814380 -.00000067  00000+0  00000+0 0  9993
2 43108  54.2979 301.4505 0003008 258.7050 101.2808  1.86231135 57811
BEIDOU-3 M4             
1 43207U 18018A   26191.29044929 -.00000046  00000+0  00000+0 0  9991
2 43207  56.6705  62.3878 0007465  27.3573 332.7450  1.86231221 57170
BEIDOU-3 M3             
1 43208U 18018B   26191.89389862 -.00000045  00000+0  00000+0 0  9995
2 43208  56.6702  62.3717 0007948 345.4223  14.6194  1.86231003 57182
BEIDOU-3 M9             
1 43245U 18029A   26189.42706898 -.00000063  00000+0  00000+0 0  9996
2 43245  54.1736 299.2068 0001105 182.3801 177.6433  1.86228294 56297
BEIDOU-3 M10            
1 43246U 18029B   26192.04609622 -.00000064  00000+0  00000+0 0  9997
2 43246  54.1686 299.1412 0003325  36.7442 323.3010  1.86229381 56326
IRNSS-1I                
1 43286U 18035A   26187.83739038  .00000079  00000+0  00000+0 0  9999
2 43286  28.7973  73.8917 0018087 180.4002  27.0525  1.00279237 30279
COSMOS 2527 [GLONASS-M] 
1 43508U 18053A   26192.01706175 -.00000021  00000+0  00000+0 0  9996
2 43508  65.5904  73.1132 0006603 231.0887 128.9155  2.13102189 62783
BEIDOU-2 IGSO-7         
1 43539U 18057A   26182.89122331 -.00000033  00000+0  00000+0 0  9998
2 43539  55.1981 162.9292 0104946 237.8611 308.6338  1.00246939 29273
GSAT0221 (GALILEO 25)   
1 43564U 18060A   26190.94173446 -.00000079  00000+0  00000+0 0  9998
2 43564  57.1621 341.1668 0002608 288.2741  71.6944  1.70476012 49555
GSAT0222 (GALILEO 26)   
1 43565U 18060B   26192.33458396 -.00000085  00000+0  00000+0 0  9991
2 43565  57.1644 341.1328 0002691 235.7662 124.2009  1.70475791 49623
GSAT0219 (GALILEO 23)   
1 43566U 18060C   26190.20911964 -.00000076  00000+0  00000+0 0  9991
2 43566  57.1645 341.1918 0001791 303.0651  56.9164  1.70476041 49562
GSAT0220 (GALILEO 24)   
1 43567U 18060D   26191.60328123 -.00000081  00000+0  00000+0 0  9992
2 43567  57.1637 341.1546 0002118 293.2596  66.7130  1.70475685 49579
BEIDOU-3 M5             
1 43581U 18062A   26191.73310516  .00000103  00000+0  00000+0 0  9995
2 43581  54.0867 181.5039 0005696 292.3937  67.5502  1.86228457 54075
BEIDOU-3 M6             
1 43582U 18062B   26192.13364117  .00000097  00000+0  00000+0 0  9999
2 43582  54.0861 181.4793 0005318  10.3380 349.6750  1.86227689 54083
BEIDOU-3 M12            
1 43602U 18067A   26192.07206983  .00000097  00000+0  00000+0 0  9996
2 43602  54.1816 180.2303 0007896  30.3679 329.6779  1.86227713 53566
BEIDOU-3 M11            
1 43603U 18067B   26192.20719940  .00000095  00000+0  00000+0 0  9992
2 43603  54.1790 180.1895 0004609  13.3752 346.6361  1.86227159 53598
BEIDOU-3 M13            
1 43622U 18072A   26192.16191247 -.00000044  00000+0  00000+0 0  9993
2 43622  56.6449  61.8695 0006305 333.1065  26.9264  1.86231317 53103
BEIDOU-3 M14            
1 43623U 18072B   26190.95343477 -.00000046  00000+0  00000+0 0  9995
2 43623  56.6460  61.9028 0005491  10.8304 349.2439  1.86231182 53079
BEIDOU-3 M16            
1 43647U 18078A   26190.03453737 -.00000064  00000+0  00000+0 0  9997
2 43647  54.0687 299.2200 0006721  40.1381 319.9343  1.86232218 52566
BEIDOU-3 M15            
1 43648U 18078B   26188.01602491 -.00000061  00000+0  00000+0 0  9993
2 43648  54.0663 299.2911 0003746  58.7000 301.3630  1.86232386 52545
BEIDOU-3 G1             
1 43683U 18085A   26192.53425497 -.00000106  00000+0  00000+0 0  9991
2 43683   2.9262  96.7295 0008100 355.4681 189.5230  1.00272785 28309
COSMOS 2529 [GLONASS-M] 
1 43687U 18086A   26192.11333993  .00000113  00000+0  00000+0 0  9996
2 43687  64.2969 191.7864 0012111 256.4030 103.4921  2.13101972 59794
BEIDOU-3 M17            
1 43706U 18093A   26192.20916097  .00000096  00000+0  00000+0 0  9998
2 43706  54.1701 181.4815 0010142 293.6750 249.0648  1.86228231 51987
BEIDOU-3 M18            
1 43707U 18093B   26191.26314179  .00000110  00000+0  00000+0 0  9994
2 43707  54.1710 181.5060 0008029 322.3122  37.6380  1.86226328 51962
BEIDOU-3 IGSO-1         
1 44204U 19023A   26192.47302328 -.00000206  00000+0  00000+0 0  9995
2 44204  58.7291  37.4004 0025624 224.0842 317.2354  1.00284056  7454
BEIDOU-2 G8             
1 44231U 19027A   26192.48520302 -.00000243  00000+0  00000+0 0  9995
2 44231   1.7159  74.5095 0009793 282.8905 251.1799  1.00272969 26324
